{
  "type": "FeatureCollection",
  "features": [
    {
      "type": "Feature",
      "properties": {
        "norad_id": 30555,
        "name": "FENGYUN 1C DEB",
        "group": "fengyun-1c-debris",
        "lat": -4.471162949435197,
        "lon": 42.44156035946931,
        "alt_km": 825.1056141531908,
        "timestamp": "2025-12-14T05:42:18.737419+00:00",
        "meta_object_name": "FENGYUN 1C DEB",
        "meta_object_id": "1999-025AKV",
        "meta_epoch": "2025-12-13T16:45:53.373888",
        "meta_mean_motion": 14.20813651,
        "meta_eccentricity": 0.00426241,
        "meta_inclination": 98.7577,
        "meta_ra_of_asc_node": 41.2167,
        "meta_arg_of_pericenter": 268.6977,
        "meta_mean_anomaly": 210.0774,
        "meta_ephemeris_type": 0,
        "meta_classification_type": "U",
        "meta_norad_cat_id": 30555,
        "meta_element_set_no": 999,
        "meta_rev_at_epoch": 96949,
        "meta_bstar": 0.0017016346,
        "meta_mean_motion_dot": 3.666e-05,
        "meta_mean_motion_ddot": 0,
        "tle_line1": "1 30555U 99025AKV 25347.69853442  .00003666  00000+0  17016-2 0  9992",
        "tle_line2": "2 30555  98.7577  41.2167 0042624 268.6977 210.0774 14.20813651969496"
      },
      "geometry": {
        "type": "Point",
        "coordinates": [
          42.44156035946931,
          -4.471162949435197
        ]
      }
    },
    {
      "type": "Feature",
      "properties": {
        "norad_id": 30556,
        "name": "FENGYUN 1C DEB",
        "group": "fengyun-1c-debris",
        "lat": 36.04362922470478,
        "lon": -25.0220611234849,
        "alt_km": 933.8176280766047,
        "timestamp": "2025-12-14T05:42:18.737434+00:00",
        "meta_object_name": "FENGYUN 1C DEB",
        "meta_object_id": "1999-025AKW",
        "meta_epoch": "2025-12-13T11:25:08.528160",
        "meta_mean_motion": 14.01368566,
        "meta_eccentricity": 0.00680061,
        "meta_inclination": 98.7817,
        "meta_ra_of_asc_node": 340.7036,
        "meta_arg_of_pericenter": 235.4268,
        "meta_mean_anomaly": 279.2496,
        "meta_ephemeris_type": 0,
        "meta_classification_type": "U",
        "meta_norad_cat_id": 30556,
        "meta_element_set_no": 999,
        "meta_rev_at_epoch": 96267,
        "meta_bstar": 0.00040991492,
        "meta_mean_motion_dot": 5.88e-06,
        "meta_mean_motion_ddot": 0,
        "tle_line1": "1 30556U 99025AKW 25347.47579315  .00000588  00000+0  40991-3 0  9992",
        "tle_line2": "2 30556  98.7817 340.7036 0068006 235.4268 279.2496 14.01368566962673"
      },
      "geometry": {
        "type": "Point",
        "coordinates": [
          -25.0220611234849,
          36.04362922470478
        ]
      }
    },
    {
      "type": "Feature",
      "properties": {
        "norad_id": 30557,
        "name": "FENGYUN 1C DEB",
        "group": "fengyun-1c-debris",
        "lat": -30.834997464971064,
        "lon": -131.99459907809793,
        "alt_km": 815.3331682436674,
        "timestamp": "2025-12-14T05:42:18.737444+00:00",
        "meta_object_name": "FENGYUN 1C DEB",
        "meta_object_id": "1999-025AKX",
        "meta_epoch": "2025-12-13T15:05:12.131232",
        "meta_mean_motion": 14.10803776,
        "meta_eccentricity": 0.00682403,
        "meta_inclination": 98.9203,
        "meta_ra_of_asc_node": 52.7805,
        "meta_arg_of_pericenter": 230.0302,
        "meta_mean_anomaly": 129.4863,
        "meta_ephemeris_type": 0,
        "meta_classification_type": "U",
        "meta_norad_cat_id": 30557,
        "meta_element_set_no": 999,
        "meta_rev_at_epoch": 96313,
        "meta_bstar": 0.0018116485,
        "meta_mean_motion_dot": 3.271e-05,
        "meta_mean_motion_ddot": 0,
        "tle_line1": "1 30557U 99025AKX 25347.62861263  .00003271  00000+0  18116-2 0  9991",
        "tle_line2": "2 30557  98.9203  52.7805 0068240 230.0302 129.4863 14.10803776963132"
      },
      "geometry": {
        "type": "Point",
        "coordinates": [
          -131.99459907809793,
          -30.834997464971064
        ]
      }
    },
    {
      "type": "Feature",
      "properties": {
        "norad_id": 30558,
        "name": "FENGYUN 1C DEB",
        "group": "fengyun-1c-debris",
        "lat": -28.202336692633107,
        "lon": -56.07003170021945,
        "alt_km": 992.5531920245812,
        "timestamp": "2025-12-14T05:42:18.737454+00:00",
        "meta_object_name": "FENGYUN 1C DEB",
        "meta_object_id": "1999-025AKY",
        "meta_epoch": "2025-12-09T16:09:58.996800",
        "meta_mean_motion": 13.28486111,
        "meta_eccentricity": 0.04256851,
        "meta_inclination": 99.4674,
        "meta_ra_of_asc_node": 124.8713,
        "meta_arg_of_pericenter": 280.5886,
        "meta_mean_anomaly": 74.757,
        "meta_ephemeris_type": 0,
        "meta_classification_type": "U",
        "meta_norad_cat_id": 30558,
        "meta_element_set_no": 999,
        "meta_rev_at_epoch": 90717,
        "meta_bstar": 0.0051946283,
        "meta_mean_motion_dot": 3.853e-05,
        "meta_mean_motion_ddot": 0,
        "tle_line1": "1 30558U 99025AKY 25343.67359950  .00003853  00000+0  51946-2 0  9992",
        "tle_line2": "2 30558  99.4674 124.8713 0425685 280.5886  74.7570 13.28486111907174"
      },
      "geometry": {
        "type": "Point",
        "coordinates": [
          -56.07003170021945,
          -28.202336692633107
        ]
      }
    },
    {
      "type": "Feature",
      "properties": {
        "norad_id": 30560,
        "name": "FENGYUN 1C DEB",
        "group": "fengyun-1c-debris",
        "lat": -1.8642462471134107,
        "lon": -17.775920900575823,
        "alt_km": 910.750987933031,
        "timestamp": "2025-12-14T05:42:18.737464+00:00",
        "meta_object_name": "FENGYUN 1C DEB",
        "meta_object_id": "1999-025ALA",
        "meta_epoch": "2025-12-13T13:22:51.683232",
        "meta_mean_motion": 14.17027713,
        "meta_eccentricity": 0.01149477,
        "meta_inclination": 98.6637,
        "meta_ra_of_asc_node": 341.277,
        "meta_arg_of_pericenter": 209.3622,
        "meta_mean_anomaly": 280.4009,
        "meta_ephemeris_type": 0,
        "meta_classification_type": "U",
        "meta_norad_cat_id": 30560,
        "meta_element_set_no": 999,
        "meta_rev_at_epoch": 97380,
        "meta_bstar": 0.00036808285,
        "meta_mean_motion_dot": 7.46e-06,
        "meta_mean_motion_ddot": 0,
        "tle_line1": "1 30560U 99025ALA 25347.55754263  .00000746  00000+0  36808-3 0  9991",
        "tle_line2": "2 30560  98.6637 341.2770 0114947 209.3622 280.4009 14.17027713973802"
      },
      "geometry": {
        "type": "Point",
        "coordinates": [
          -17.775920900575823,
          -1.8642462471134107
        ]
      }
    },
    {
      "type": "Feature",
      "properties": {
        "norad_id": 30561,
        "name": "FENGYUN 1C DEB",
        "group": "fengyun-1c-debris",
        "lat": 64.30939172750479,
        "lon": -28.2847423702951,
        "alt_km": 816.9770306599494,
        "timestamp": "2025-12-14T05:42:18.737475+00:00",
        "meta_object_name": "FENGYUN 1C DEB",
        "meta_object_id": "1999-025ALB",
        "meta_epoch": "2025-12-13T16:05:49.375104",
        "meta_mean_motion": 14.11272679,
        "meta_eccentricity": 0.00607119,
        "meta_inclination": 98.7248,
        "meta_ra_of_asc_node": 349.7795,
        "meta_arg_of_pericenter": 111.3782,
        "meta_mean_anomaly": 315.7755,
        "meta_ephemeris_type": 0,
        "meta_classification_type": "U",
        "meta_norad_cat_id": 30561,
        "meta_element_set_no": 999,
        "meta_rev_at_epoch": 96991,
        "meta_bstar": 0.00046041937,
        "meta_mean_motion_dot": 8.04e-06,
        "meta_mean_motion_ddot": 0,
        "tle_line1": "1 30561U 99025ALB 25347.67071036  .00000804  00000+0  46042-3 0  9991",
        "tle_line2": "2 30561  98.7248 349.7795 0060711 111.3782 315.7755 14.11272679969914"
      },
      "geometry": {
        "type": "Point",
        "coordinates": [
          -28.2847423702951,
          64.30939172750479
        ]
      }
    },
    {
      "type": "Feature",
      "properties": {
        "norad_id": 30562,
        "name": "FENGYUN 1C DEB",
        "group": "fengyun-1c-debris",
        "lat": -2.0556632525248766,
        "lon": 56.29437202275994,
        "alt_km": 823.1389310234144,
        "timestamp": "2025-12-14T05:42:18.737487+00:00",
        "meta_object_name": "FENGYUN 1C DEB",
        "meta_object_id": "1999-025ALC",
        "meta_epoch": "2025-12-13T16:48:22.317120",
        "meta_mean_motion": 14.23064077,
        "meta_eccentricity": 0.00591175,
        "meta_inclination": 98.7635,
        "meta_ra_of_asc_node": 55.4423,
        "meta_arg_of_pericenter": 262.5502,
        "meta_mean_anomaly": 222.9474,
        "meta_ephemeris_type": 0,
        "meta_classification_type": "U",
        "meta_norad_cat_id": 30562,
        "meta_element_set_no": 999,
        "meta_rev_at_epoch": 97013,
        "meta_bstar": 0.0019684692,
        "meta_mean_motion_dot": 4.477e-05,
        "meta_mean_motion_ddot": 0,
        "tle_line1": "1 30562U 99025ALC 25347.70025830  .00004477  00000+0  19685-2 0  9999",
        "tle_line2": "2 30562  98.7635  55.4423 0059117 262.5502 222.9474 14.23064077970138"
      },
      "geometry": {
        "type": "Point",
        "coordinates": [
          56.29437202275994,
          -2.0556632525248766
        ]
      }
    }
  ]
}